PANDORA
1 99152U 80229J   26024.10646991  .00000000  00000-0  37770-3 0    07
2 99152  97.8000  25.0659 0003752 239.6799  29.9387 14.87761079    09
